[{"OBJECT_NAME":"STARLINK-2417","OBJECT_ID":"2021-027E","EPOCH":"2026-03-09T12:54:17.115840","MEAN_MOTION":15.30191527,"ECCENTRICITY":0.00011841,"INCLINATION":53.1603,"RA_OF_ASC_NODE":166.3022,"ARG_OF_PERICENTER":76.2156,"MEAN_ANOMALY":283.8977,"EPHEMERIS_TYPE":0,"CLASSIFICATION_TYPE":"U","NORAD_CAT_ID":48096,"ELEMENT_SET_NO":999,"REV_AT_EPOCH":27248,"BSTAR":-4.46308e-5,"MEAN_MOTION_DOT":-1.68e-5,"MEAN_MOTION_DDOT":0},{"OBJECT_NAME":"TITAN 4B R\/B","OBJECT_ID":"2005-016B","EPOCH":"2026-03-09T20:27:57.848832","MEAN_MOTION":15.42682045,"ECCENTRICITY":0.00616552,"INCLINATION":56.9964,"RA_OF_ASC_NODE":245.9411,"ARG_OF_PERICENTER":20.2929,"MEAN_ANOMALY":340.0555,"EPHEMERIS_TYPE":0,"CLASSIFICATION_TYPE":"U","NORAD_CAT_ID":28647,"ELEMENT_SET_NO":999,"REV_AT_EPOCH":37707,"BSTAR":0.00046483736,"MEAN_MOTION_DOT":0.0002164,"MEAN_MOTION_DDOT":0}]
